[{"OBJECT_NAME":"ONEWEB-0461","OBJECT_ID":"2022-012AD","EPOCH":"2025-09-10T09:42:11.746368","MEAN_MOTION":13.1765207,"ECCENTRICITY":0.00017821,"INCLINATION":87.9045,"RA_OF_ASC_NODE":61.4966,"ARG_OF_PERICENTER":96.1169,"MEAN_ANOMALY":264.0166,"EPHEMERIS_TYPE":0,"CLASSIFICATION_TYPE":"U","NORAD_CAT_ID":51649,"ELEMENT_SET_NO":999,"REV_AT_EPOCH":17704,"BSTAR":2.7482578e-5,"MEAN_MOTION_DOT":2.4e-7,"MEAN_MOTION_DDOT":0},{"OBJECT_NAME":"ONEWEB-0463","OBJECT_ID":"2022-012AE","EPOCH":"2025-09-10T11:04:47.887968","MEAN_MOTION":13.17650693,"ECCENTRICITY":0.00017436,"INCLINATION":87.903,"RA_OF_ASC_NODE":61.5453,"ARG_OF_PERICENTER":89.5814,"MEAN_ANOMALY":270.5517,"EPHEMERIS_TYPE":0,"CLASSIFICATION_TYPE":"U","NORAD_CAT_ID":51650,"ELEMENT_SET_NO":999,"REV_AT_EPOCH":17683,"BSTAR":-2.9138694e-5,"MEAN_MOTION_DOT":2.0e-8,"MEAN_MOTION_DDOT":0},{"OBJECT_NAME":"ONEWEB-0464","OBJECT_ID":"2022-012AF","EPOCH":"2025-09-10T00:43:08.799744","MEAN_MOTION":13.10369479,"ECCENTRICITY":0.00013837,"INCLINATION":87.8741,"RA_OF_ASC_NODE":92.1601,"ARG_OF_PERICENTER":80.0499,"MEAN_ANOMALY":280.0784,"EPHEMERIS_TYPE":0,"CLASSIFICATION_TYPE":"U","NORAD_CAT_ID":51651,"ELEMENT_SET_NO":999,"REV_AT_EPOCH":17263,"BSTAR":-0.00050800736,"MEAN_MOTION_DOT":-1.65e-6,"MEAN_MOTION_DDOT":0},{"OBJECT_NAME":"ONEWEB-0468","OBJECT_ID":"2022-012AG","EPOCH":"2025-09-09T23:02:45.589632","MEAN_MOTION":13.10360793,"ECCENTRICITY":0.00015668,"INCLINATION":87.8742,"RA_OF_ASC_NODE":92.166,"ARG_OF_PERICENTER":84.1075,"MEAN_ANOMALY":276.0231,"EPHEMERIS_TYPE":0,"CLASSIFICATION_TYPE":"U","NORAD_CAT_ID":51652,"ELEMENT_SET_NO":999,"REV_AT_EPOCH":17260,"BSTAR":-0.0038977436,"MEAN_MOTION_DOT":-1.348e-5,"MEAN_MOTION_DDOT":0},{"OBJECT_NAME":"ONEWEB-0473","OBJECT_ID":"2022-012AH","EPOCH":"2025-09-09T19:01:19.848576","MEAN_MOTION":13.10369229,"ECCENTRICITY":0.00016947,"INCLINATION":87.8743,"RA_OF_ASC_NODE":92.2029,"ARG_OF_PERICENTER":81.24,"MEAN_ANOMALY":278.8919,"EPHEMERIS_TYPE":0,"CLASSIFICATION_TYPE":"U","NORAD_CAT_ID":51653,"ELEMENT_SET_NO":999,"REV_AT_EPOCH":17258,"BSTAR":0.0006182494,"MEAN_MOTION_DOT":2.28e-6,"MEAN_MOTION_DDOT":0},{"OBJECT_NAME":"ONEWEB-0474","OBJECT_ID":"2022-012AJ","EPOCH":"2025-09-09T22:29:18.516768","MEAN_MOTION":13.10371546,"ECCENTRICITY":0.0001574,"INCLINATION":87.8745,"RA_OF_ASC_NODE":92.1348,"ARG_OF_PERICENTER":77.3886,"MEAN_ANOMALY":282.7417,"EPHEMERIS_TYPE":0,"CLASSIFICATION_TYPE":"U","NORAD_CAT_ID":51654,"ELEMENT_SET_NO":999,"REV_AT_EPOCH":17259,"BSTAR":0.0017911833,"MEAN_MOTION_DOT":6.38e-6,"MEAN_MOTION_DDOT":0},{"OBJECT_NAME":"ONEWEB-0475","OBJECT_ID":"2022-012AK","EPOCH":"2025-09-09T22:36:23.780160","MEAN_MOTION":13.17650165,"ECCENTRICITY":0.00017633,"INCLINATION":87.9034,"RA_OF_ASC_NODE":61.6318,"ARG_OF_PERICENTER":64.4635,"MEAN_ANOMALY":295.6678,"EPHEMERIS_TYPE":0,"CLASSIFICATION_TYPE":"U","NORAD_CAT_ID":51655,"ELEMENT_SET_NO":999,"REV_AT_EPOCH":17678,"BSTAR":7.995933e-5,"MEAN_MOTION_DOT":4.4e-7,"MEAN_MOTION_DDOT":0},{"OBJECT_NAME":"ONEWEB-0490","OBJECT_ID":"2022-138A","EPOCH":"2025-09-10T07:04:29.795520","MEAN_MOTION":13.19727323,"ECCENTRICITY":0.00015778,"INCLINATION":87.9286,"RA_OF_ASC_NODE":0.6037,"ARG_OF_PERICENTER":98.359,"MEAN_ANOMALY":261.7721,"EPHEMERIS_TYPE":0,"CLASSIFICATION_TYPE":"U","NORAD_CAT_ID":54113,"ELEMENT_SET_NO":999,"REV_AT_EPOCH":13991,"BSTAR":0.00018420116,"MEAN_MOTION_DOT":8.7e-7,"MEAN_MOTION_DDOT":0},{"OBJECT_NAME":"ONEWEB-0492","OBJECT_ID":"2022-138B","EPOCH":"2025-09-10T05:51:43.268256","MEAN_MOTION":13.1972543,"ECCENTRICITY":0.00016612,"INCLINATION":87.9282,"RA_OF_ASC_NODE":0.636,"ARG_OF_PERICENTER":104.5595,"MEAN_ANOMALY":255.5722,"EPHEMERIS_TYPE":0,"CLASSIFICATION_TYPE":"U","NORAD_CAT_ID":54114,"ELEMENT_SET_NO":999,"REV_AT_EPOCH":13991,"BSTAR":0.00038716448,"MEAN_MOTION_DOT":1.68e-6,"MEAN_MOTION_DDOT":0},{"OBJECT_NAME":"ONEWEB-0495","OBJECT_ID":"2022-138C","EPOCH":"2025-09-10T07:09:03.164256","MEAN_MOTION":13.1972707,"ECCENTRICITY":0.00011442,"INCLINATION":87.9273,"RA_OF_ASC_NODE":0.6342,"ARG_OF_PERICENTER":86.9481,"MEAN_ANOMALY":273.1783,"EPHEMERIS_TYPE":0,"CLASSIFICATION_TYPE":"U","NORAD_CAT_ID":54115,"ELEMENT_SET_NO":999,"REV_AT_EPOCH":13990,"BSTAR":0.00014192623,"MEAN_MOTION_DOT":7.0e-7,"MEAN_MOTION_DDOT":0},{"OBJECT_NAME":"ONEWEB-0497","OBJECT_ID":"2022-138D","EPOCH":"2025-09-10T07:27:15.242976","MEAN_MOTION":13.19727297,"ECCENTRICITY":0.0001714,"INCLINATION":87.9288,"RA_OF_ASC_NODE":0.6078,"ARG_OF_PERICENTER":99.1765,"MEAN_ANOMALY":260.9561,"EPHEMERIS_TYPE":0,"CLASSIFICATION_TYPE":"U","NORAD_CAT_ID":54116,"ELEMENT_SET_NO":999,"REV_AT_EPOCH":13989,"BSTAR":0.00018903854,"MEAN_MOTION_DOT":8.9e-7,"MEAN_MOTION_DDOT":0},{"OBJECT_NAME":"ONEWEB-0499","OBJECT_ID":"2022-138E","EPOCH":"2025-09-10T07:02:13.505568","MEAN_MOTION":13.19725247,"ECCENTRICITY":0.00018313,"INCLINATION":87.9283,"RA_OF_ASC_NODE":0.6287,"ARG_OF_PERICENTER":87.804,"MEAN_ANOMALY":272.3303,"EPHEMERIS_TYPE":0,"CLASSIFICATION_TYPE":"U","NORAD_CAT_ID":54117,"ELEMENT_SET_NO":999,"REV_AT_EPOCH":13990,"BSTAR":0.00013513182,"MEAN_MOTION_DOT":6.7e-7,"MEAN_MOTION_DDOT":0},{"OBJECT_NAME":"ONEWEB-0500","OBJECT_ID":"2022-138F","EPOCH":"2025-09-10T01:39:15.812064","MEAN_MOTION":13.19727623,"ECCENTRICITY":0.00017719,"INCLINATION":87.9288,"RA_OF_ASC_NODE":0.6593,"ARG_OF_PERICENTER":101.4649,"MEAN_ANOMALY":258.6682,"EPHEMERIS_TYPE":0,"CLASSIFICATION_TYPE":"U","NORAD_CAT_ID":54118,"ELEMENT_SET_NO":999,"REV_AT_EPOCH":13988,"BSTAR":0.00029222725,"MEAN_MOTION_DOT":1.3e-6,"MEAN_MOTION_DDOT":0},{"OBJECT_NAME":"ONEWEB-0501","OBJECT_ID":"2022-138G","EPOCH":"2025-09-10T06:00:48.240576","MEAN_MOTION":13.19725416,"ECCENTRICITY":0.00014487,"INCLINATION":87.9286,"RA_OF_ASC_NODE":0.6153,"ARG_OF_PERICENTER":91.352,"MEAN_ANOMALY":268.7778,"EPHEMERIS_TYPE":0,"CLASSIFICATION_TYPE":"U","NORAD_CAT_ID":54119,"ELEMENT_SET_NO":999,"REV_AT_EPOCH":13988,"BSTAR":-0.00056407266,"MEAN_MOTION_DOT":-2.13e-6,"MEAN_MOTION_DDOT":0},{"OBJECT_NAME":"ONEWEB-0502","OBJECT_ID":"2022-138H","EPOCH":"2025-09-09T20:34:27.707232","MEAN_MOTION":13.19724176,"ECCENTRICITY":0.00016676,"INCLINATION":87.9285,"RA_OF_ASC_NODE":0.6765,"ARG_OF_PERICENTER":90.8947,"MEAN_ANOMALY":269.2377,"EPHEMERIS_TYPE":0,"CLASSIFICATION_TYPE":"U","NORAD_CAT_ID":54120,"ELEMENT_SET_NO":999,"REV_AT_EPOCH":13985,"BSTAR":-0.0001890509,"MEAN_MOTION_DOT":-6.3e-7,"MEAN_MOTION_DDOT":0},{"OBJECT_NAME":"ONEWEB-0503","OBJECT_ID":"2022-138J","EPOCH":"2025-09-10T07:13:35.233536","MEAN_MOTION":13.19724263,"ECCENTRICITY":0.00019983,"INCLINATION":87.9285,"RA_OF_ASC_NODE":0.5932,"ARG_OF_PERICENTER":92.7809,"MEAN_ANOMALY":267.3553,"EPHEMERIS_TYPE":0,"CLASSIFICATION_TYPE":"U","NORAD_CAT_ID":54121,"ELEMENT_SET_NO":999,"REV_AT_EPOCH":13990,"BSTAR":0.00010766426,"MEAN_MOTION_DOT":5.6e-7,"MEAN_MOTION_DDOT":0},{"OBJECT_NAME":"ONEWEB-0504","OBJECT_ID":"2022-138K","EPOCH":"2025-09-10T01:27:52.439904","MEAN_MOTION":13.1972493,"ECCENTRICITY":0.00016892,"INCLINATION":87.9287,"RA_OF_ASC_NODE":0.6573,"ARG_OF_PERICENTER":89.3999,"MEAN_ANOMALY":270.7327,"EPHEMERIS_TYPE":0,"CLASSIFICATION_TYPE":"U","NORAD_CAT_ID":54122,"ELEMENT_SET_NO":999,"REV_AT_EPOCH":13988,"BSTAR":0.00011819788,"MEAN_MOTION_DOT":6.0e-7,"MEAN_MOTION_DDOT":0}]
