ONEWEB-0461             
1 51649U 22012AD  25253.40430262  .00000024  00000+0  27483-4 0  9993
2 51649  87.9045  61.4966 0001782  96.1169 264.0166 13.17652070177048
ONEWEB-0463             
1 51650U 22012AE  25253.46166537  .00000002  00000+0 -29139-4 0  9999
2 51650  87.9030  61.5453 0001743  89.5814 270.5517 13.17650693176833
ONEWEB-0464             
1 51651U 22012AF  25253.02996296 -.00000165  00000+0 -50801-3 0  9995
2 51651  87.8741  92.1601 0001383  80.0499 280.0784 13.10369479172630
ONEWEB-0468             
1 51652U 22012AG  25252.96024988 -.00001348  00000+0 -38977-2 0  9991
2 51652  87.8742  92.1660 0001566  84.1075 276.0231 13.10360793172604
ONEWEB-0473             
1 51653U 22012AH  25252.79259084  .00000228  00000+0  61825-3 0  9993
2 51653  87.8743  92.2029 0001694  81.2400 278.8919 13.10369229172581
ONEWEB-0474             
1 51654U 22012AJ  25252.93701987  .00000638  00000+0  17912-2 0  9996
2 51654  87.8745  92.1348 0001574  77.3886 282.7417 13.10371546172591
ONEWEB-0475             
1 51655U 22012AK  25252.94194190  .00000044  00000+0  79959-4 0  9992
2 51655  87.9034  61.6318 0001763  64.4635 295.6678 13.17650165176782
ONEWEB-0490             
1 54113U 22138A   25253.29478930  .00000087  00000+0  18420-3 0  9991
2 54113  87.9286   0.6037 0001577  98.3590 261.7721 13.19727323139913
ONEWEB-0492             
1 54114U 22138B   25253.24425079  .00000168  00000+0  38716-3 0  9993
2 54114  87.9282   0.6360 0001661 104.5595 255.5722 13.19725430139917
ONEWEB-0495             
1 54115U 22138C   25253.29795329  .00000070  00000+0  14193-3 0  9992
2 54115  87.9273   0.6342 0001144  86.9481 273.1783 13.19727070139905
ONEWEB-0497             
1 54116U 22138D   25253.31059309  .00000089  00000+0  18904-3 0  9991
2 54116  87.9288   0.6078 0001714  99.1765 260.9561 13.19727297139899
ONEWEB-0499             
1 54117U 22138E   25253.29321187  .00000067  00000+0  13513-3 0  9992
2 54117  87.9283   0.6287 0001831  87.8040 272.3303 13.19725247139903
ONEWEB-0500             
1 54118U 22138F   25253.06893301  .00000130  00000+0  29223-3 0  9996
2 54118  87.9288   0.6593 0001771 101.4649 258.6682 13.19727623139884
ONEWEB-0501             
1 54119U 22138G   25253.25055834 -.00000213  00000+0 -56407-3 0  9997
2 54119  87.9286   0.6153 0001448  91.3520 268.7778 13.19725416139887
ONEWEB-0502             
1 54120U 22138H   25252.85726513 -.00000063  00000+0 -18905-3 0  9997
2 54120  87.9285   0.6765 0001667  90.8947 269.2377 13.19724176139857
ONEWEB-0503             
1 54121U 22138J   25253.30110224  .00000056  00000+0  10766-3 0  9992
2 54121  87.9285   0.5932 0001998  92.7809 267.3553 13.19724263139906
ONEWEB-0504             
1 54122U 22138K   25253.06102361  .00000060  00000+0  11820-3 0  9996
2 54122  87.9287   0.6573 0001689  89.3999 270.7327 13.19724930139885
